STARLINK-35873          
1 67860U 26034L   26060.83335647  .00063743  00000+0  32484-3 0  9991
2 67860  53.1537 250.6434 0001044  72.8967 353.6557 15.80824147  2742
STARLINK-36325          
1 67861U 26034M   26060.83335647 -.00092288  00000+0 -46817-3 0  9995
2 67861  53.1535 250.6343 0000809  65.6062   5.1847 15.80913320  2602
STARLINK-36332          
1 67862U 26034N   26060.83335647 -.00228322  00000+0 -11764-2 0  9998
2 67862  53.1529 250.6261 0000847  58.0354  16.9689 15.81013849  2609
STARLINK-36835          
1 67863U 26034P   26060.83335647 -.00568341  00000+0 -30195-2 0  9996
2 67863  53.1523 250.6164 0000911 103.7998 335.3608 15.81228023  2601
STARLINK-36831          
1 67864U 26034Q   26060.83335647 -.00904479  00000+0 -49243-2 0  9997
2 67864  53.1522 250.6085 0000648  83.7601 359.4644 15.81549891  2604
STARLINK-36738          
1 67865U 26034R   26060.83335647 -.01205054  00000+0 -65630-2 0  9990
2 67865  53.1520 250.5996 0000760  68.0814  19.1874 15.81849497  2600
STARLINK-36780          
1 67866U 26034S   26060.83335647 -.01468155  00000+0 -79194-2 0  9994
2 67866  53.1507 250.5910 0001014  62.9660  28.2989 15.82145857  2605
STARLINK-36761          
1 67867U 26034T   26060.83335647 -.01492153  00000+0 -79932-2 0  9990
2 67867  53.1509 250.5827 0001167  57.0678  38.1942 15.82335918  2606
STARLINK-36762          
1 67868U 26034U   26060.83335647 -.01529729  00000+0 -81463-2 0  9993
2 67868  53.1509 250.5747 0001262  53.7248  45.5069 15.82530612  2600
STARLINK-36779          
1 67869U 26034V   26060.83335647 -.01471543  00000+0 -77369-2 0  9994
2 67869  53.1503 250.5661 0001257  54.5309  48.6197 15.82690031  2609
STARLINK-36770          
1 67870U 26034W   26060.83335647 -.01514776  00000+0 -78581-2 0  9999
2 67870  53.1500 250.5498 0001062  68.8424  42.0903 15.83054932  2604
STARLINK-36769          
1 67871U 26034X   26060.83335647 -.01522248  00000+0 -79722-2 0  9991
2 67871  53.1501 250.5579 0000977  66.8125  40.2782 15.82870711  2601
