CCSDS_OMM_VERS = 2.0
CREATION_DATE  = 
ORIGINATOR     = 

OBJECT_NAME    = STARLINK-35873
OBJECT_ID      = 2026-034L
CENTER_NAME    = EARTH
REF_FRAME      = TEME
TIME_SYSTEM    = UTC
MEAN_ELEMENT_THEORY = SGP/SGP4

EPOCH          = 2026-03-01T20:00:01.999008
MEAN_MOTION    = 15.80824147
ECCENTRICITY   = .0001044
INCLINATION    = 53.1537
RA_OF_ASC_NODE = 250.6434
ARG_OF_PERICENTER = 72.8967
MEAN_ANOMALY   = 353.6557

EPHEMERIS_TYPE = 0
CLASSIFICATION_TYPE = U
NORAD_CAT_ID   = 67860
ELEMENT_SET_NO = 999
REV_AT_EPOCH   = 274
BSTAR          = .32484E-3
MEAN_MOTION_DOT = .63743E-3
MEAN_MOTION_DDOT = 0

CCSDS_OMM_VERS = 2.0
CREATION_DATE  = 
ORIGINATOR     = 

OBJECT_NAME    = STARLINK-36325
OBJECT_ID      = 2026-034M
CENTER_NAME    = EARTH
REF_FRAME      = TEME
TIME_SYSTEM    = UTC
MEAN_ELEMENT_THEORY = SGP/SGP4

EPOCH          = 2026-03-01T20:00:01.999008
MEAN_MOTION    = 15.80913320
ECCENTRICITY   = .0000809
INCLINATION    = 53.1535
RA_OF_ASC_NODE = 250.6343
ARG_OF_PERICENTER = 65.6062
MEAN_ANOMALY   = 5.1847

EPHEMERIS_TYPE = 0
CLASSIFICATION_TYPE = U
NORAD_CAT_ID   = 67861
ELEMENT_SET_NO = 999
REV_AT_EPOCH   = 260
BSTAR          = -.46817E-3
MEAN_MOTION_DOT = -.92288E-3
MEAN_MOTION_DDOT = 0

CCSDS_OMM_VERS = 2.0
CREATION_DATE  = 
ORIGINATOR     = 

OBJECT_NAME    = STARLINK-36332
OBJECT_ID      = 2026-034N
CENTER_NAME    = EARTH
REF_FRAME      = TEME
TIME_SYSTEM    = UTC
MEAN_ELEMENT_THEORY = SGP/SGP4

EPOCH          = 2026-03-01T20:00:01.999008
MEAN_MOTION    = 15.81013849
ECCENTRICITY   = .0000847
INCLINATION    = 53.1529
RA_OF_ASC_NODE = 250.6261
ARG_OF_PERICENTER = 58.0354
MEAN_ANOMALY   = 16.9689

EPHEMERIS_TYPE = 0
CLASSIFICATION_TYPE = U
NORAD_CAT_ID   = 67862
ELEMENT_SET_NO = 999
REV_AT_EPOCH   = 260
BSTAR          = -.11764E-2
MEAN_MOTION_DOT = -.228322E-2
MEAN_MOTION_DDOT = 0

CCSDS_OMM_VERS = 2.0
CREATION_DATE  = 
ORIGINATOR     = 

OBJECT_NAME    = STARLINK-36835
OBJECT_ID      = 2026-034P
CENTER_NAME    = EARTH
REF_FRAME      = TEME
TIME_SYSTEM    = UTC
MEAN_ELEMENT_THEORY = SGP/SGP4

EPOCH          = 2026-03-01T20:00:01.999008
MEAN_MOTION    = 15.81228023
ECCENTRICITY   = .0000911
INCLINATION    = 53.1523
RA_OF_ASC_NODE = 250.6164
ARG_OF_PERICENTER = 103.7998
MEAN_ANOMALY   = 335.3608

EPHEMERIS_TYPE = 0
CLASSIFICATION_TYPE = U
NORAD_CAT_ID   = 67863
ELEMENT_SET_NO = 999
REV_AT_EPOCH   = 260
BSTAR          = -.30195E-2
MEAN_MOTION_DOT = -.568341E-2
MEAN_MOTION_DDOT = 0

CCSDS_OMM_VERS = 2.0
CREATION_DATE  = 
ORIGINATOR     = 

OBJECT_NAME    = STARLINK-36831
OBJECT_ID      = 2026-034Q
CENTER_NAME    = EARTH
REF_FRAME      = TEME
TIME_SYSTEM    = UTC
MEAN_ELEMENT_THEORY = SGP/SGP4

EPOCH          = 2026-03-01T20:00:01.999008
MEAN_MOTION    = 15.81549891
ECCENTRICITY   = .0000648
INCLINATION    = 53.1522
RA_OF_ASC_NODE = 250.6085
ARG_OF_PERICENTER = 83.7601
MEAN_ANOMALY   = 359.4644

EPHEMERIS_TYPE = 0
CLASSIFICATION_TYPE = U
NORAD_CAT_ID   = 67864
ELEMENT_SET_NO = 999
REV_AT_EPOCH   = 260
BSTAR          = -.49243E-2
MEAN_MOTION_DOT = -.904479E-2
MEAN_MOTION_DDOT = 0

CCSDS_OMM_VERS = 2.0
CREATION_DATE  = 
ORIGINATOR     = 

OBJECT_NAME    = STARLINK-36738
OBJECT_ID      = 2026-034R
CENTER_NAME    = EARTH
REF_FRAME      = TEME
TIME_SYSTEM    = UTC
MEAN_ELEMENT_THEORY = SGP/SGP4

EPOCH          = 2026-03-01T20:00:01.999008
MEAN_MOTION    = 15.81849497
ECCENTRICITY   = .000076
INCLINATION    = 53.1520
RA_OF_ASC_NODE = 250.5996
ARG_OF_PERICENTER = 68.0814
MEAN_ANOMALY   = 19.1874

EPHEMERIS_TYPE = 0
CLASSIFICATION_TYPE = U
NORAD_CAT_ID   = 67865
ELEMENT_SET_NO = 999
REV_AT_EPOCH   = 260
BSTAR          = -.6563E-2
MEAN_MOTION_DOT = -.1205054E-1
MEAN_MOTION_DDOT = 0

CCSDS_OMM_VERS = 2.0
CREATION_DATE  = 
ORIGINATOR     = 

OBJECT_NAME    = STARLINK-36780
OBJECT_ID      = 2026-034S
CENTER_NAME    = EARTH
REF_FRAME      = TEME
TIME_SYSTEM    = UTC
MEAN_ELEMENT_THEORY = SGP/SGP4

EPOCH          = 2026-03-01T20:00:01.999008
MEAN_MOTION    = 15.82145857
ECCENTRICITY   = .0001014
INCLINATION    = 53.1507
RA_OF_ASC_NODE = 250.5910
ARG_OF_PERICENTER = 62.9660
MEAN_ANOMALY   = 28.2989

EPHEMERIS_TYPE = 0
CLASSIFICATION_TYPE = U
NORAD_CAT_ID   = 67866
ELEMENT_SET_NO = 999
REV_AT_EPOCH   = 260
BSTAR          = -.79194E-2
MEAN_MOTION_DOT = -.1468155E-1
MEAN_MOTION_DDOT = 0

CCSDS_OMM_VERS = 2.0
CREATION_DATE  = 
ORIGINATOR     = 

OBJECT_NAME    = STARLINK-36761
OBJECT_ID      = 2026-034T
CENTER_NAME    = EARTH
REF_FRAME      = TEME
TIME_SYSTEM    = UTC
MEAN_ELEMENT_THEORY = SGP/SGP4

EPOCH          = 2026-03-01T20:00:01.999008
MEAN_MOTION    = 15.82335918
ECCENTRICITY   = .0001167
INCLINATION    = 53.1509
RA_OF_ASC_NODE = 250.5827
ARG_OF_PERICENTER = 57.0678
MEAN_ANOMALY   = 38.1942

EPHEMERIS_TYPE = 0
CLASSIFICATION_TYPE = U
NORAD_CAT_ID   = 67867
ELEMENT_SET_NO = 999
REV_AT_EPOCH   = 260
BSTAR          = -.79932E-2
MEAN_MOTION_DOT = -.1492153E-1
MEAN_MOTION_DDOT = 0

CCSDS_OMM_VERS = 2.0
CREATION_DATE  = 
ORIGINATOR     = 

OBJECT_NAME    = STARLINK-36762
OBJECT_ID      = 2026-034U
CENTER_NAME    = EARTH
REF_FRAME      = TEME
TIME_SYSTEM    = UTC
MEAN_ELEMENT_THEORY = SGP/SGP4

EPOCH          = 2026-03-01T20:00:01.999008
MEAN_MOTION    = 15.82530612
ECCENTRICITY   = .0001262
INCLINATION    = 53.1509
RA_OF_ASC_NODE = 250.5747
ARG_OF_PERICENTER = 53.7248
MEAN_ANOMALY   = 45.5069

EPHEMERIS_TYPE = 0
CLASSIFICATION_TYPE = U
NORAD_CAT_ID   = 67868
ELEMENT_SET_NO = 999
REV_AT_EPOCH   = 260
BSTAR          = -.81463E-2
MEAN_MOTION_DOT = -.1529729E-1
MEAN_MOTION_DDOT = 0

CCSDS_OMM_VERS = 2.0
CREATION_DATE  = 
ORIGINATOR     = 

OBJECT_NAME    = STARLINK-36779
OBJECT_ID      = 2026-034V
CENTER_NAME    = EARTH
REF_FRAME      = TEME
TIME_SYSTEM    = UTC
MEAN_ELEMENT_THEORY = SGP/SGP4

EPOCH          = 2026-03-01T20:00:01.999008
MEAN_MOTION    = 15.82690031
ECCENTRICITY   = .0001257
INCLINATION    = 53.1503
RA_OF_ASC_NODE = 250.5661
ARG_OF_PERICENTER = 54.5309
MEAN_ANOMALY   = 48.6197

EPHEMERIS_TYPE = 0
CLASSIFICATION_TYPE = U
NORAD_CAT_ID   = 67869
ELEMENT_SET_NO = 999
REV_AT_EPOCH   = 260
BSTAR          = -.77369E-2
MEAN_MOTION_DOT = -.1471543E-1
MEAN_MOTION_DDOT = 0

CCSDS_OMM_VERS = 2.0
CREATION_DATE  = 
ORIGINATOR     = 

OBJECT_NAME    = STARLINK-36770
OBJECT_ID      = 2026-034W
CENTER_NAME    = EARTH
REF_FRAME      = TEME
TIME_SYSTEM    = UTC
MEAN_ELEMENT_THEORY = SGP/SGP4

EPOCH          = 2026-03-01T20:00:01.999008
MEAN_MOTION    = 15.83054932
ECCENTRICITY   = .0001062
INCLINATION    = 53.1500
RA_OF_ASC_NODE = 250.5498
ARG_OF_PERICENTER = 68.8424
MEAN_ANOMALY   = 42.0903

EPHEMERIS_TYPE = 0
CLASSIFICATION_TYPE = U
NORAD_CAT_ID   = 67870
ELEMENT_SET_NO = 999
REV_AT_EPOCH   = 260
BSTAR          = -.78581E-2
MEAN_MOTION_DOT = -.1514776E-1
MEAN_MOTION_DDOT = 0

CCSDS_OMM_VERS = 2.0
CREATION_DATE  = 
ORIGINATOR     = 

OBJECT_NAME    = STARLINK-36769
OBJECT_ID      = 2026-034X
CENTER_NAME    = EARTH
REF_FRAME      = TEME
TIME_SYSTEM    = UTC
MEAN_ELEMENT_THEORY = SGP/SGP4

EPOCH          = 2026-03-01T20:00:01.999008
MEAN_MOTION    = 15.82870711
ECCENTRICITY   = .0000977
INCLINATION    = 53.1501
RA_OF_ASC_NODE = 250.5579
ARG_OF_PERICENTER = 66.8125
MEAN_ANOMALY   = 40.2782

EPHEMERIS_TYPE = 0
CLASSIFICATION_TYPE = U
NORAD_CAT_ID   = 67871
ELEMENT_SET_NO = 999
REV_AT_EPOCH   = 260
BSTAR          = -.79722E-2
MEAN_MOTION_DOT = -.1522248E-1
MEAN_MOTION_DDOT = 0

